ONEWEB-0379             
1 49305U 21090AC  24167.46982948 -.00000233  00000+0 -66401-3 0  9992
2 49305  87.8968  75.2851 0002040  80.4925 279.6435 13.14502592131431
ONEWEB-0380             
1 49306U 21090AD  24167.47725708 -.00000047  00000+0 -15061-3 0  9992
2 49306  87.9156  90.5828 0002022  77.0237 283.1121 13.19724711129910
ONEWEB-0381             
1 49307U 21090AE  24167.57498381  .00000058  00000+0  11148-3 0  9990
2 49307  87.9217  60.0018 0001790  79.7505 280.3830 13.20770305133250
ONEWEB-0382             
1 49308U 21090AF  24167.41085668  .00000045  00000+0  78751-4 0  9994
2 49308  87.9218  60.0315 0001743  94.2444 265.8889 13.20770749133225
ONEWEB-0383             
1 49309U 21090AG  24167.46347784 -.00000173  00000+0 -50046-3 0  9990
2 49309  87.8967  75.2746 0001988  85.2175 274.9182 13.14503997131467
ONEWEB-0384             
1 49310U 21090AH  24167.40769466  .00000058  00000+0  11162-3 0  9997
2 49310  87.9218  60.0435 0001716  97.0541 263.0788 13.20770842133233
ONEWEB-0385             
1 49311U 21090AJ  24167.40296732  .00000111  00000+0  24149-3 0  9998
2 49311  87.9220  60.0457 0001632  89.6332 270.4989 13.20772193133206
ONEWEB-0386             
1 49312U 21090AK  24167.42034065  .00000146  00000+0  32642-3 0  9995
2 49312  87.9211  60.0373 0001798  90.0413 270.0926 13.20771353133229
